62795,QIANFAN-65,2025,106.59,-1.0,+,88.97,Active,0,LEO,PRC,China,Unknown,Unknown,Unknown,1 62795U 25016L   25273.85096299  .00000076  00000+0  98459-4 0  9991,2 62795  88.9734 110.6031 0013434 186.9865 173.1101 13.50970206 37401,13.50970206,0.0013434,LEO
62796,QIANFAN-66,2025,106.59,-1.0,+,88.98,Active,0,LEO,PRC,China,Unknown,Unknown,Unknown,1 62796U 25016M   25273.80577088  .00000115  00000+0  15867-3 0  9992,2 62796  88.9753 110.5636 0014673 183.1320 176.9742 13.50965481 37449,13.50965481,0.0014673,LEO
62797,QIANFAN-67,2025,106.59,-1.0,+,88.97,Active,0,LEO,PRC,China,Unknown,Unknown,Unknown,1 62797U 25016N   25273.80975955  .00000096  00000+0  12990-3 0  9990,2 62797  88.9743 110.5958 0014443 190.1767 169.9094 13.50966946 37410,13.50966946,0.0014443,LEO
62798,QIANFAN-68,2025,106.59,-1.0,+,88.98,Active,0,LEO,PRC,China,Unknown,Unknown,Unknown,1 62798U 25016P   25266.46913683  .00000070  00000+0  89224-4 0  9992,2 62798  88.9758 111.3962 0013928 210.6591 149.3747 13.50984556 36403,13.50984556,0.0013928,LEO
62799,QIANFAN-69,2025,106.59,-1.0,+,88.97,Active,0,LEO,PRC,China,Unknown,Unknown,Unknown,1 62799U 25016Q   25273.81804730  .00000099  00000+0  13390-3 0  9993,2 62799  88.9727 110.5226 0015256 189.7569 170.3288 13.50967002 37436,13.50967002,0.0015256,LEO
62800,QIANFAN-70,2025,106.59,-1.0,+,88.97,Active,0,LEO,PRC,China,Unknown,Unknown,Unknown,1 62800U 25016R   25273.83441929  .00000119  00000+0  16554-3 0  9993,2 62800  88.9747 110.6440 0015143 179.7072 180.4091 13.50971744 37390,13.50971744,0.0015143,LEO
62801,QIANFAN-71,2025,106.59,-1.0,+,88.97,Active,0,LEO,PRC,China,Unknown,Unknown,Unknown,1 62801U 25016S   25273.83039030  .00000093  00000+0  12549-3 0  9991,2 62801  88.9742 110.6284 0015074 193.3612 166.7142 13.50970599 37398,13.50970599,0.0015074,LEO
62802,QIANFAN-72,2025,106.71,-1.0,+,88.97,Active,0,LEO,PRC,China,Unknown,Unknown,Unknown,1 62802U 25016T   25273.84599355  .00000103  00000+0  14359-3 0  9997,2 62802  88.9731 110.6471 0018402 201.7272 158.3099 13.49486950 37387,13.4948695,0.0018402,LEO
